NORAD_CAT_ID,OBJECT_NAME,OBJECT_TYPE,EPOCH,MEAN_MOTION,ECCENTRICITY,INCLINATION,RA_OF_ASC_NODE,ARG_OF_PERICENTER,MEAN_ANOMALY,BSTAR,MEAN_MOTION_DOT,MEAN_MOTION_DDOT,TLE_LINE0,TLE_LINE1,TLE_LINE2,SEMIMAJOR_AXIS,PERIOD,APOGEE,PERIGEE,DECAYED
50821.0,STARLINK-3346,PAYLOAD,2023-06-10 19:06:03,15.08845803,0.0001008,53.2172,351.2977,102.2639,257.8466,-7.8618e-06,-4.13e-06,0.0,0 STARLINK-3346,1 50821U 22001U   23161.79587794 -.00000413  00000-0 -78618-5 0  9995,2 50821  53.2172 351.2977 0001008 102.2639 257.8466 15.08845803 80259,6917.863,95.437,540.425,539.03,0.0
50821.0,STARLINK-3346,PAYLOAD,2023-06-10 20:41:26,15.08846243,0.0001015,53.2172,351.0006,100.7488,259.3618,-4.4136e-06,-3.58e-06,0.0,0 STARLINK-3346,1 50821U 22001U   23161.86211745 -.00000358  00000-0 -44136-5 0  9999,2 50821  53.2172 351.0006 0001015 100.7488 259.3618 15.08846243 79010,6917.861,95.437,540.428,539.024,0.0
50821.0,STARLINK-3346,PAYLOAD,2023-06-11 12:35:18,15.08835419,0.0001054,53.2173,348.0257,91.6939,268.4174,1.176e-05,-1.01e-06,0.0,0 STARLINK-3346,1 50821U 22001U   23162.52452401 -.00000101  00000-0  11760-4 0  9990,2 50821  53.2173 348.0257 0001054  91.6939 268.4174 15.08835419 80368,6917.894,95.438,540.489,539.03,0.0
50821.0,STARLINK-3346,PAYLOAD,2023-06-11 20:32:14,15.08835625,9.58e-05,53.2168,346.5399,109.9486,250.1609,8.792e-05,1.112e-05,0.0,0 STARLINK-3346,1 50821U 22001U   23162.85572046  .00001112  00000-0  87920-4 0  9997,2 50821  53.2168 346.5399 0000958 109.9486 250.1609 15.08835625 79160,6917.894,95.438,540.421,539.096,0.0
50821.0,STARLINK-3346,PAYLOAD,2023-06-11 22:07:37,15.08842861,0.0001087,53.2172,346.243,86.8923,273.2193,3.1765e-05,2.18e-06,0.0,0 STARLINK-3346,1 50821U 22001U   23162.92195897  .00000218  00000-0  31765-4 0  9992,2 50821  53.2172 346.2430 0001087  86.8923 273.2193 15.08842861 80426,6917.872,95.437,540.489,538.985,0.0
50821.0,STARLINK-3346,PAYLOAD,2023-06-12 18:47:38,15.08837032,0.0001048,53.2184,342.3767,90.3005,269.8108,3.6695e-05,2.96e-06,0.0,0 STARLINK-3346,1 50821U 22001U   23163.78308268  .00000296  00000-0  36695-4 0  9998,2 50821  53.2184 342.3767 0001048  90.3005 269.8108 15.08837032 80552,6917.889,95.438,540.479,539.029,0.0
50821.0,STARLINK-3346,PAYLOAD,2023-06-12 21:58:24,15.08842097,0.0001048,53.2185,341.7816,91.5887,268.5225,5.0036e-05,5.09e-06,0.0,0 STARLINK-3346,1 50821U 22001U   23163.91555930  .00000509  00000-0  50036-4 0  9995,2 50821  53.2185 341.7816 0001048  91.5887 268.5225 15.08842097 79328,6917.874,95.437,540.464,539.014,0.0
50821.0,STARLINK-3346,PAYLOAD,2023-06-13 12:16:53,15.08833033,0.0001114,53.2186,339.1037,90.296,269.816,4.9764e-06,-2.09e-06,0.0,0 STARLINK-3346,1 50821U 22001U   23164.51172786 -.00000209  00000-0  49764-5 0  9991,2 50821  53.2186 339.1037 0001114  90.2960 269.8160 15.08833033 79419,6917.902,95.438,540.537,538.996,0.0
50821.0,STARLINK-3346,PAYLOAD,2023-06-13 18:38:25,15.08835477,9.64e-05,53.219,337.9172,82.8567,277.2535,0.00011544,1.55e-05,0.0,0 STARLINK-3346,1 50821U 22001U   23164.77668373  .00001550  00000-0  11544-3 0  9993,2 50821  53.2190 337.9172 0000964  82.8567 277.2535 15.08835477 79459,6917.894,95.438,540.426,539.092,0.0
50821.0,STARLINK-3346,PAYLOAD,2023-06-14 12:07:40,15.08834893,0.0001079,53.2187,334.6462,92.881,267.2306,-1.7542e-05,-5.67e-06,0.0,0 STARLINK-3346,1 50821U 22001U   23165.50532955 -.00000567  00000-0 -17542-4 0  9995,2 50821  53.2187 334.6462 0001079  92.8810 267.2306 15.08834893 80819,6917.896,95.438,540.507,539.015,0.0
50821.0,STARLINK-3346,PAYLOAD,2023-06-14 20:04:36,15.0883679,0.0001157,53.2193,333.1613,99.1518,260.9605,-2.0662e-06,-3.21e-06,0.0,0 STARLINK-3346,1 50821U 22001U   23165.83652863 -.00000321  00000-0 -20662-5 0  9998,2 50821  53.2193 333.1613 0001157  99.1518 260.9605 15.08836790 79616,6917.89,95.438,540.556,538.955,0.0
50821.0,STARLINK-3346,PAYLOAD,2023-06-15 11:58:27,15.08832441,0.0001166,53.2183,330.1852,97.5971,262.5153,1.8896e-05,1.3e-07,0.0,0 STARLINK-3346,1 50821U 22001U   23166.49893274  .00000013  00000-0  18896-4 0  9995,2 50821  53.2183 330.1852 0001166  97.5971 262.5153 15.08832441 79718,6917.903,95.438,540.575,538.962,0.0
50821.0,STARLINK-3346,PAYLOAD,2023-06-15 18:19:59,15.08841691,0.0001025,53.2179,328.995,84.6306,275.4803,5.1326e-05,5.29e-06,0.0,0 STARLINK-3346,1 50821U 22001U   23166.76388677  .00000529  00000-0  51326-4 0  9998,2 50821  53.2179 328.9950 0001025  84.6306 275.4803 15.08841691 81007,6917.875,95.437,540.449,539.031,0.0
50821.0,STARLINK-3346,PAYLOAD,2023-06-16 11:49:13,15.08843732,0.0001114,53.2171,325.7236,82.921,277.1909,0.00016062,2.27e-05,0.0,0 STARLINK-3346,1 50821U 22001U   23167.49252198  .00002270  00000-0  16062-3 0  9999,2 50821  53.2171 325.7236 0001114  82.9210 277.1909 15.08843732 79860,6917.869,95.437,540.505,538.963,0.0
50821.0,STARLINK-3346,PAYLOAD,2023-06-16 16:35:22,15.08848579,8.69e-05,53.2164,324.8316,84.8646,275.2445,0.00020289,2.943e-05,0.0,0 STARLINK-3346,1 50821U 22001U   23167.69123651  .00002943  00000-0  20289-3 0  9995,2 50821  53.2164 324.8316 0000869  84.8646 275.2445 15.08848579 81143,6917.854,95.437,540.32,539.118,0.0
50821.0,STARLINK-3346,PAYLOAD,2023-06-16 19:46:08,15.08857906,8.14e-05,53.2174,324.2369,71.6039,288.5042,0.00020944,3.049e-05,0.0,0 STARLINK-3346,1 50821U 22001U   23167.82370994  .00003049  00000-0  20944-3 0  9990,2 50821  53.2174 324.2369 0000814  71.6039 288.5042 15.08857906 79912,6917.826,95.436,540.254,539.128,0.0
50821.0,STARLINK-3346,PAYLOAD,2023-06-17 10:04:39,15.08829629,0.0001639,53.2183,321.5615,94.5187,265.5992,3.3037e-06,-2.35e-06,0.0,0 STARLINK-3346,1 50821U 22001U   23168.41989632 -.00000235  00000-0  33037-5 0  9995,2 50821  53.2183 321.5615 0001639  94.5187 265.5992 15.08829629 81250,6917.912,95.438,540.911,538.643,0.0
50821.0,STARLINK-3346,PAYLOAD,2023-06-17 16:26:11,15.08830655,0.0001267,53.2173,320.3716,92.7979,267.3158,-4.3242e-05,-9.76e-06,0.0,0 STARLINK-3346,1 50821U 22001U   23168.68485739 -.00000976  00000-0 -43242-4 0  9994,2 50821  53.2173 320.3716 0001267  92.7979 267.3158 15.08830655 80045,6917.909,95.438,540.65,538.897,0.0
50821.0,STARLINK-3346,PAYLOAD,2023-06-18 09:55:25,15.08845331,9.29e-05,53.2178,317.1008,100.4208,259.6889,7.2478e-05,8.66e-06,0.0,0 STARLINK-3346,1 50821U 22001U   23169.41348808  .00000866  00000-0  72478-4 0  9990,2 50821  53.2178 317.1008 0000929 100.4208 259.6889 15.08845331 81407,6917.864,95.437,540.372,539.086,0.0
50821.0,STARLINK-3346,PAYLOAD,2023-06-18 16:16:57,15.08850142,9.47e-05,53.2169,315.911,102.1244,257.9854,0.00022931,3.365e-05,0.0,0 STARLINK-3346,1 50821U 22001U   23169.67844604  .00003365  00000-0  22931-3 0  9998,2 50821  53.2169 315.9110 0000947 102.1244 257.9854 15.08850142 80190,6917.849,95.437,540.37,539.059,0.0
50821.0,STARLINK-3346,PAYLOAD,2023-06-19 09:46:12,15.08839414,9.34e-05,53.2168,312.6399,107.9925,252.1169,0.000314,4.713e-05,0.0,0 STARLINK-3346,1 50821U 22001U   23170.40709389  .00004713  00000-0  31400-3 0  9990,2 50821  53.2168 312.6399 0000934 107.9925 252.1169 15.08839414 81553,6917.882,95.438,540.393,539.101,0.0
50821.0,STARLINK-3346,PAYLOAD,2023-06-19 16:07:45,15.08845765,7.84e-05,53.2168,311.4513,87.5681,272.5401,0.00037442,5.677e-05,0.0,0 STARLINK-3346,1 50821U 22001U   23170.67205258  .00005677  00000-0  37442-3 0  9997,2 50821  53.2168 311.4513 0000784  87.5681 272.5401 15.08845765 80340,6917.863,95.437,540.27,539.185,0.0
50821.0,STARLINK-3346,PAYLOAD,2023-06-20 09:36:59,15.08841505,8.81e-05,53.2177,308.1815,83.8872,276.2221,4.7745e-05,4.72e-06,0.0,0 STARLINK-3346,1 50821U 22001U   23171.40069223  .00000472  00000-0  47745-4 0  9995,2 50821  53.2177 308.1815 0000881  83.8872 276.2221 15.08841505 80458,6917.876,95.437,540.35,539.131,0.0
50821.0,STARLINK-3346,PAYLOAD,2023-06-20 17:33:55,15.08845964,8.82e-05,53.2177,306.6945,87.076,273.0333,0.00013182,1.811e-05,0.0,0 STARLINK-3346,1 50821U 22001U   23171.73189031  .00001811  00000-0  13182-3 0  9996,2 50821  53.2177 306.6945 0000882  87.0760 273.0333 15.08845964 80506,6917.862,95.437,540.337,539.117,0.0
50821.0,STARLINK-3346,PAYLOAD,2023-06-21 12:38:33,15.08837584,9.6e-05,53.2181,303.1265,84.2316,275.8785,1.903e-05,1.5e-07,0.0,0 STARLINK-3346,1 50821U 22001U   23172.52677400  .00000015  00000-0  19030-4 0  9990,2 50821  53.2181 303.1265 0000960  84.2316 275.8785 15.08837584 81872,6917.888,95.438,540.417,539.089,0.0
50821.0,STARLINK-3346,PAYLOAD,2023-06-21 14:13:56,15.08838617,9.78e-05,53.2181,302.8288,84.8036,275.3068,3.2335e-05,2.27e-06,0.0,0 STARLINK-3346,1 50821U 22001U   23172.59301338  .00000227  00000-0  32335-4 0  9999,2 50821  53.2181 302.8288 0000978  84.8036 275.3068 15.08838617 80637,6917.885,95.438,540.426,539.073,0.0
50821.0,STARLINK-3346,PAYLOAD,2023-06-21 15:49:19,15.08841452,9.98e-05,53.2178,302.5322,84.443,275.6676,2.9448e-05,1.81e-06,0.0,0 STARLINK-3346,1 50821U 22001U   23172.65925184  .00000181  00000-0  29448-4 0  9997,2 50821  53.2178 302.5322 0000998  84.4430 275.6676 15.08841452 80645,6917.876,95.437,540.431,539.051,0.0
50821.0,STARLINK-3346,PAYLOAD,2023-06-22 17:15:29,15.08843173,9.99e-05,53.2181,297.774,96.4955,263.6151,0.00011467,1.538e-05,0.0,0 STARLINK-3346,1 50821U 22001U   23173.71909308  .00001538  00000-0  11467-3 0  9993,2 50821  53.2181 297.7740 0000999  96.4955 263.6151 15.08843173 82058,6917.871,95.437,540.427,539.045,0.0
50821.0,STARLINK-3346,PAYLOAD,2023-06-23 09:09:21,15.08836118,8.84e-05,53.2184,294.8001,92.2594,267.85,8.6267e-05,1.085e-05,0.0,0 STARLINK-3346,1 50821U 22001U   23174.38149868  .00001085  00000-0  86267-4 0  9992,2 50821  53.2184 294.8001 0000884  92.2594 267.8500 15.08836118 82151,6917.892,95.438,540.369,539.146,0.0
50821.0,STARLINK-3346,PAYLOAD,2023-06-23 15:30:53,15.08844807,9.39e-05,53.2183,293.6106,81.178,278.9318,6.5957e-05,7.62e-06,0.0,0 STARLINK-3346,1 50821U 22001U   23174.64645389  .00000762  00000-0  65957-4 0  9994,2 50821  53.2183 293.6106 0000939  81.1780 278.9318 15.08844807 82196,6917.866,95.437,540.38,539.081,0.0
